[{"OBJECT_NAME":"ONEWEB-0267","OBJECT_ID":"2021-060U","EPOCH":"2026-03-09T23:09:12.675456","MEAN_MOTION":13.16593432,"ECCENTRICITY":0.0001657,"INCLINATION":87.9004,"RA_OF_ASC_NODE":248.506,"ARG_OF_PERICENTER":102.7004,"MEAN_ANOMALY":257.4312,"EPHEMERIS_TYPE":0,"CLASSIFICATION_TYPE":"U","NORAD_CAT_ID":48985,"ELEMENT_SET_NO":999,"REV_AT_EPOCH":22653,"BSTAR":9.9371329e-5,"MEAN_MOTION_DOT":5.1e-7,"MEAN_MOTION_DDOT":0},{"OBJECT_NAME":"SL-14 DEB","OBJECT_ID":"1991-056AW","EPOCH":"2026-03-06T19:23:23.122464","MEAN_MOTION":13.22919905,"ECCENTRICITY":0.00270247,"INCLINATION":82.5763,"RA_OF_ASC_NODE":202.9649,"ARG_OF_PERICENTER":294.6895,"MEAN_ANOMALY":65.1417,"EPHEMERIS_TYPE":0,"CLASSIFICATION_TYPE":"U","NORAD_CAT_ID":45308,"ELEMENT_SET_NO":999,"REV_AT_EPOCH":29082,"BSTAR":0.001494395,"MEAN_MOTION_DOT":6.41e-6,"MEAN_MOTION_DDOT":0}]
